STARLINK-4256           
1 52994U 22076J   24229.04221268 -.00004745  00000+0 -28014-3 0  9999
2 52994  53.2156 135.8586 0001726  95.8748 264.2441 15.08847779117161
STARLINK-4296           
1 52995U 22076K   24229.03485123  .00003574  00000+0  24239-3 0  9993
2 52995  53.2141 135.8866 0000993  74.0287 286.0814 15.08856458117169
STARLINK-4295           
1 52996U 22076L   24229.06528163  .00000009  00000+0  18678-4 0  9990
2 52996  53.2156 136.0338 0001346  88.0932 272.0214 15.08857042117167
STARLINK-4301           
1 52997U 22076M   24228.87879627  .00114304  00000+0  27328-2 0  9997
2 52997  53.2384  76.6156 0002332 156.5365 203.5748 15.40627922117546
STARLINK-4254           
1 52998U 22076N   24228.95756282  .00015703  00000+0  10024-2 0  9996
2 52998  53.2158 136.1528 0001272  73.1461 286.9670 15.08844255116681
STARLINK-4217           
1 52999U 22076P   24229.01645106 -.00004128  00000+0 -24141-3 0  9994
2 52999  53.2124 135.9763 0000766  93.8487 266.2593 15.08845462117167
STARLINK-4194           
1 53000U 22076Q   24229.03117596  .00020588  00000+0  13077-2 0  9998
2 53000  53.2158 135.9071 0001243  70.8723 289.2404 15.08844721117162
STARLINK-4190           
1 53001U 22076R   24229.01277398  .00020566  00000+0  13063-2 0  9995
2 53001  53.2146 135.9903 0001418 105.4989 254.6160 15.08844690117167
STARLINK-4121           
1 53002U 22076S   24229.25001157 -.00057197  00000+0 -36021-2 0  9991
2 53002  53.2155 134.9276 0001311  77.0153  52.4479 15.08863800117205
STARLINK-4255           
1 53003U 22076T   24228.93916979  .00010900  00000+0  70166-3 0  9991
2 53003  53.2135 136.3151 0001498 106.7463 253.3693 15.08852528116688
STARLINK-4253           
1 53004U 22076U   24229.02014117  .00004205  00000+0  28212-3 0  9992
2 53004  53.2163 135.9597 0001105 102.8246 257.2869 15.08840058117167
STARLINK-4288           
1 53005U 22076V   24229.06797031  .00020512  00000+0  13028-2 0  9997
2 53005  53.2131 135.7425 0001145 114.5655 245.5456 15.08848558117175
STARLINK-4290           
1 53006U 22076W   24229.00909048  .00076542  00000+0  47722-2 0  9997
2 53006  53.2139 136.0077 0001979  71.4405 288.6802 15.08865997117168
STARLINK-4215           
1 53007U 22076X   24229.06061770  .00003470  00000+0  23599-3 0  9992
2 53007  53.2163 135.7757 0001192 105.6361 254.4762 15.08843744117178
STARLINK-4275           
1 53008U 22076Y   24229.06428654  .00001642  00000+0  12117-3 0  9994
2 53008  53.2142 135.7477 0001495  97.8169 262.2993 15.08862878117171
STARLINK-4277           
1 53009U 22076Z   24228.91433407  .00001795  00000+0  13079-3 0  9997
2 53009  53.2144 126.4310 0000984  98.3935 261.7169 15.08851297116818
STARLINK-4263           
1 53010U 22076AA  24229.03849678  .00000240  00000+0  33143-4 0  9993
2 53010  53.2148 135.6083 0001370 119.9639 240.1490 15.08852869117178
STARLINK-4265           
1 53011U 22076AB  24229.04312030  .00014152  00000+0  90498-3 0  9994
2 53011  53.2146 125.8555 0001262  94.5740 265.5396 15.08859452117309
STARLINK-4271           
1 53012U 22076AC  24229.05693162 -.00000441  00000+0 -96504-5 0  9998
2 53012  53.2154 135.7901 0001099  91.7834 268.3284 15.08849252117174
STARLINK-4177           
1 53013U 22076AD  24228.90329005 -.00005277  00000+0 -31362-3 0  9995
2 53013  53.2148 126.4808 0001208  98.8045 261.3084 15.08850244117281
STARLINK-4183           
1 53014U 22076AE  24228.98425246  .00018966  00000+0  12061-2 0  9999
2 53014  53.2148 126.1188 0001197  82.6260 277.4868 15.08853715117292
STARLINK-4262           
1 53015U 22076AF  24228.89593602  .00002910  00000+0  20090-3 0  9996
2 53015  53.2169 126.5152 0001228  87.6825 272.4308 15.08834529116811
STARLINK-4283           
1 53016U 22076AG  24229.03945266  .00027793  00000+0  17567-2 0  9991
2 53016  53.2146 125.8700 0001440  93.9505 266.1652 15.08856570117306
STARLINK-4281           
1 53017U 22076AH  24228.89225659 -.00004412  00000+0 -25932-3 0  9993
2 53017  53.2180 126.5328 0001434 113.0549 247.0594 15.08834859116829
STARLINK-4279           
1 53018U 22076AJ  24228.99532430  .00050117  00000+0  31428-2 0  9990
2 53018  53.2150 126.3291 0001587  94.7031 265.4142 15.08862866117298
STARLINK-4282           
1 53019U 22076AK  24229.01737197 -.00004546  00000+0 -26766-3 0  9999
2 53019  53.2156 125.9696 0001145  90.0452 270.0671 15.08843715117308
STARLINK-4287           
1 53020U 22076AL  24228.89961035  .00007008  00000+0  45799-3 0  9997
2 53020  53.2141 126.4972 0000905 118.6314 241.4769 15.08837751117284
STARLINK-4203           
1 53021U 22076AM  24228.94377121  .00005561  00000+0  36718-3 0  9994
2 53021  53.2151 126.2968 0001305  93.9045 266.2096 15.08839843116821
STARLINK-4216           
1 53022U 22076AN  24229.02105516  .00022190  00000+0  14079-2 0  9994
2 53022  53.2157 125.9526 0001265 106.8336 253.2795 15.08840900117308
STARLINK-4284           
1 53023U 22076AP  24229.00265759  .00003723  00000+0  25180-3 0  9996
2 53023  53.2155 126.0256 0001198  90.0185 270.0944 15.08847309117303
