OBJECT_NAME,OBJECT_ID,EPOCH,MEAN_MOTION,ECCENTRICITY,INCLINATION,RA_OF_ASC_NODE,ARG_OF_PERICENTER,MEAN_ANOMALY,EPHEMERIS_TYPE,CLASSIFICATION_TYPE,NORAD_CAT_ID,ELEMENT_SET_NO,REV_AT_EPOCH,BSTAR,MEAN_MOTION_DOT,MEAN_MOTION_DDOT
STARLINK-4256,2022-076J,2024-08-16T01:00:47.175552,15.08847779,.0001726,53.2156,135.8586,95.8748,264.2441,0,U,52994,999,11716,-.28014E-3,-.4745E-4,0
STARLINK-4296,2022-076K,2024-08-16T00:50:11.146272,15.08856458,.0000993,53.2141,135.8866,74.0287,286.0814,0,U,52995,999,11716,.24239E-3,.3574E-4,0
STARLINK-4295,2022-076L,2024-08-16T01:34:00.332832,15.08857042,.0001346,53.2156,136.0338,88.0932,272.0214,0,U,52996,999,11716,.18678E-4,.9E-7,0
STARLINK-4301,2022-076M,2024-08-15T21:05:27.997728,15.40627922,.0002332,53.2384,76.6156,156.5365,203.5748,0,U,52997,999,11754,.27328E-2,.114304E-2,0
STARLINK-4254,2022-076N,2024-08-15T22:58:53.427648,15.08844255,.0001272,53.2158,136.1528,73.1461,286.9670,0,U,52998,999,11668,.10024E-2,.15703E-3,0
STARLINK-4217,2022-076P,2024-08-16T00:23:41.371584,15.08845462,.0000766,53.2124,135.9763,93.8487,266.2593,0,U,52999,999,11716,-.24141E-3,-.4128E-4,0
STARLINK-4194,2022-076Q,2024-08-16T00:44:53.602944,15.08844721,.0001243,53.2158,135.9071,70.8723,289.2404,0,U,53000,999,11716,.13077E-2,.20588E-3,0
STARLINK-4190,2022-076R,2024-08-16T00:18:23.671872,15.08844690,.0001418,53.2146,135.9903,105.4989,254.6160,0,U,53001,999,11716,.13063E-2,.20566E-3,0
STARLINK-4121,2022-076S,2024-08-16T06:00:00.999648,15.08863800,.0001311,53.2155,134.9276,77.0153,52.4479,0,U,53002,999,11720,-.36021E-2,-.57197E-3,0
STARLINK-4255,2022-076T,2024-08-15T22:32:24.269856,15.08852528,.0001498,53.2135,136.3151,106.7463,253.3693,0,U,53003,999,11668,.70166E-3,.109E-3,0
STARLINK-4253,2022-076U,2024-08-16T00:29:00.197088,15.08840058,.0001105,53.2163,135.9597,102.8246,257.2869,0,U,53004,999,11716,.28212E-3,.4205E-4,0
STARLINK-4288,2022-076V,2024-08-16T01:37:52.634784,15.08848558,.0001145,53.2131,135.7425,114.5655,245.5456,0,U,53005,999,11717,.13028E-2,.20512E-3,0
STARLINK-4290,2022-076W,2024-08-16T00:13:05.417472,15.08865997,.0001979,53.2139,136.0077,71.4405,288.6802,0,U,53006,999,11716,.47722E-2,.76542E-3,0
STARLINK-4215,2022-076X,2024-08-16T01:27:17.369280,15.08843744,.0001192,53.2163,135.7757,105.6361,254.4762,0,U,53007,999,11717,.23599E-3,.347E-4,0
STARLINK-4275,2022-076Y,2024-08-16T01:32:34.357056,15.08862878,.0001495,53.2142,135.7477,97.8169,262.2993,0,U,53008,999,11717,.12117E-3,.1642E-4,0
STARLINK-4277,2022-076Z,2024-08-15T21:56:38.463648,15.08851297,.0000984,53.2144,126.4310,98.3935,261.7169,0,U,53009,999,11681,.13079E-3,.1795E-4,0
STARLINK-4263,2022-076AA,2024-08-16T00:55:26.121792,15.08852869,.000137,53.2148,135.6083,119.9639,240.1490,0,U,53010,999,11717,.33143E-4,.24E-5,0
STARLINK-4265,2022-076AB,2024-08-16T01:02:05.593920,15.08859452,.0001262,53.2146,125.8555,94.5740,265.5396,0,U,53011,999,11730,.90498E-3,.14152E-3,0
STARLINK-4271,2022-076AC,2024-08-16T01:21:58.891968,15.08849252,.0001099,53.2154,135.7901,91.7834,268.3284,0,U,53012,999,11717,-.96504E-5,-.441E-5,0
STARLINK-4177,2022-076AD,2024-08-15T21:40:44.260320,15.08850244,.0001208,53.2148,126.4808,98.8045,261.3084,0,U,53013,999,11728,-.31362E-3,-.5277E-4,0
STARLINK-4183,2022-076AE,2024-08-15T23:37:19.412544,15.08853715,.0001197,53.2148,126.1188,82.6260,277.4868,0,U,53014,999,11729,.12061E-2,.18966E-3,0
STARLINK-4262,2022-076AF,2024-08-15T21:30:08.872128,15.08834529,.0001228,53.2169,126.5152,87.6825,272.4308,0,U,53015,999,11681,.2009E-3,.291E-4,0
STARLINK-4283,2022-076AG,2024-08-16T00:56:48.709824,15.08856570,.000144,53.2146,125.8700,93.9505,266.1652,0,U,53016,999,11730,.17567E-2,.27793E-3,0
STARLINK-4281,2022-076AH,2024-08-15T21:24:50.969376,15.08834859,.0001434,53.2180,126.5328,113.0549,247.0594,0,U,53017,999,11682,-.25932E-3,-.4412E-4,0
STARLINK-4279,2022-076AJ,2024-08-15T23:53:16.019520,15.08862866,.0001587,53.2150,126.3291,94.7031,265.4142,0,U,53018,999,11729,.31428E-2,.50117E-3,0
STARLINK-4282,2022-076AK,2024-08-16T00:25:00.938208,15.08843715,.0001145,53.2156,125.9696,90.0452,270.0671,0,U,53019,999,11730,-.26766E-3,-.4546E-4,0
STARLINK-4287,2022-076AL,2024-08-15T21:35:26.334240,15.08837751,.0000905,53.2141,126.4972,118.6314,241.4769,0,U,53020,999,11728,.45799E-3,.7008E-4,0
STARLINK-4203,2022-076AM,2024-08-15T22:39:01.832544,15.08839843,.0001305,53.2151,126.2968,93.9045,266.2096,0,U,53021,999,11682,.36718E-3,.5561E-4,0
STARLINK-4216,2022-076AN,2024-08-16T00:30:19.165824,15.08840900,.0001265,53.2157,125.9526,106.8336,253.2795,0,U,53022,999,11730,.14079E-2,.2219E-3,0
STARLINK-4284,2022-076AP,2024-08-16T00:03:49.615776,15.08847309,.0001198,53.2155,126.0256,90.0185,270.0944,0,U,53023,999,11730,.2518E-3,.3723E-4,0
